{"type": "FeatureCollection", "features": [ {"type": "Feature", "properties": {"norad_id": 60453, "name": "LEGION 4", "group": "resource", "lat": 6.6331295620333135, "lon": -152.81809804508572, "alt_km": 523.0480063362638, "timestamp": "2025-12-14T05:42:18.115491+00:00", "meta": {"OBJECT_NAME": "LEGION 4", "OBJECT_ID": "2024-146B", "EPOCH": "2025-12-13T13:08:21.585984", "MEAN_MOTION": 15.15836533, "ECCENTRICITY": 0.00094101, "INCLINATION": 45.0394, "RA_OF_ASC_NODE": 37.5554, "ARG_OF_PERICENTER": 315.2837, "MEAN_ANOMALY": 44.7282, "EPHEMERIS_TYPE": 0, "CLASSIFICATION_TYPE": "U", "NORAD_CAT_ID": 60453, "ELEMENT_SET_NO": 999, "REV_AT_EPOCH": 7270, "BSTAR": 0.0003573693, "MEAN_MOTION_DOT": 6.696e-05, "MEAN_MOTION_DDOT": 0}, "tle": {"line1": "1 60453U 24146B   25347.54747206  .00006696  00000+0  35737-3 0  9995", "line2": "2 60453  45.0394  37.5554 0009410 315.2837  44.7282 15.15836533 72700"}}, "geometry": {"type": "Point", "coordinates": [-152.81809804508572, 6.6331295620333135]}}, {"type": "Feature", "properties": {"norad_id": 60989, "name": "SENTINEL-2C", "group": "resource", "lat": 24.501801906362033, "lon": -115.36119843999597, "alt_km": 787.8651962276708, "timestamp": "2025-12-14T05:42:18.115501+00:00", "meta": {"OBJECT_NAME": "SENTINEL-2C", "OBJECT_ID": "2024-157A", "EPOCH": "2025-12-13T15:33:21.799872", "MEAN_MOTION": 14.30817985, "ECCENTRICITY": 0.00011981, "INCLINATION": 98.5683, "RA_OF_ASC_NODE": 60.1177, "ARG_OF_PERICENTER": 97.2974, "MEAN_ANOMALY": 262.8345, "EPHEMERIS_TYPE": 0, "CLASSIFICATION_TYPE": "U", "NORAD_CAT_ID": 60989, "ELEMENT_SET_NO": 999, "REV_AT_EPOCH": 6645, "BSTAR": 9.484963e-05, "MEAN_MOTION_DOT": 2.05e-06, "MEAN_MOTION_DDOT": 0}, "tle": {"line1": "1 60989U 24157A   25347.64816898  .00000205  00000+0  94850-4 0  9998", "line2": "2 60989  98.5683  60.1177 0001198  97.2974 262.8345 14.30817985 66459"}}, "geometry": {"type": "Point", "coordinates": [-115.36119843999597, 24.501801906362033]}}, {"type": "Feature", "properties": {"norad_id": 61735, "name": "IONOSFERA-M 1", "group": "resource", "lat": 17.51907990475406, "lon": -144.7092963237336, "alt_km": 815.9201724757613, "timestamp": "2025-12-14T05:42:18.115511+00:00", "meta": {"OBJECT_NAME": "IONOSFERA-M 1", "OBJECT_ID": "2024-199A", "EPOCH": "2025-12-13T16:07:08.410368", "MEAN_MOTION": 14.22714289, "ECCENTRICITY": 9.112e-05, "INCLINATION": 98.7403, "RA_OF_ASC_NODE": 217.5127, "ARG_OF_PERICENTER": 19.8923, "MEAN_ANOMALY": 340.229, "EPHEMERIS_TYPE": 0, "CLASSIFICATION_TYPE": "U", "NORAD_CAT_ID": 61735, "ELEMENT_SET_NO": 999, "REV_AT_EPOCH": 10132, "BSTAR": 6.1681503e-05, "MEAN_MOTION_DOT": 9.4e-07, "MEAN_MOTION_DDOT": 0}, "tle": {"line1": "1 61735U 24199A   25347.67162512  .00000094  00000+0  61682-4 0  9997", "line2": "2 61735  98.7403 217.5127 0000911  19.8923 340.2290 14.22714289101320"}}, "geometry": {"type": "Point", "coordinates": [-144.7092963237336, 17.51907990475406]}}, {"type": "Feature", "properties": {"norad_id": 61736, "name": "IONOSFERA-M 2", "group": "resource", "lat": -20.397872517988198, "lon": 34.70726013649199, "alt_km": 821.3960995647622, "timestamp": "2025-12-14T05:42:18.115521+00:00", "meta": {"OBJECT_NAME": "IONOSFERA-M 2", "OBJECT_ID": "2024-199B", "EPOCH": "2025-12-13T15:15:45.425088", "MEAN_MOTION": 14.22716445, "ECCENTRICITY": 0.00016696, "INCLINATION": 98.7402, "RA_OF_ASC_NODE": 217.3898, "ARG_OF_PERICENTER": 109.2993, "MEAN_ANOMALY": 250.8365, "EPHEMERIS_TYPE": 0, "CLASSIFICATION_TYPE": "U", "NORAD_CAT_ID": 61736, "ELEMENT_SET_NO": 999, "REV_AT_EPOCH": 10444, "BSTAR": 6.3346491e-05, "MEAN_MOTION_DOT": 9.8e-07, "MEAN_MOTION_DDOT": 0}, "tle": {"line1": "1 61736U 24199B   25347.63594242  .00000098  00000+0  63346-4 0  9996", "line2": "2 61736  98.7402 217.3898 0001669 109.2993 250.8365 14.22716445104446"}}, "geometry": {"type": "Point", "coordinates": [34.70726013649199, -20.397872517988198]}}, {"type": "Feature", "properties": {"norad_id": 63772, "name": "BIOMASS", "group": "resource", "lat": -80.95088091046618, "lon": -123.79187690485462, "alt_km": 677.0355079532665, "timestamp": "2025-12-14T05:42:18.115532+00:00", "meta": {"OBJECT_NAME": "BIOMASS", "OBJECT_ID": "2025-090A", "EPOCH": "2025-12-13T12:05:45.708864", "MEAN_MOTION": 14.67543484, "ECCENTRICITY": 0.00011494, "INCLINATION": 98.0701, "RA_OF_ASC_NODE": 172.5025, "ARG_OF_PERICENTER": 79.7434, "MEAN_ANOMALY": 280.39, "EPHEMERIS_TYPE": 0, "CLASSIFICATION_TYPE": "U", "NORAD_CAT_ID": 63772, "ELEMENT_SET_NO": 999, "REV_AT_EPOCH": 3345, "BSTAR": 0.00037658617, "MEAN_MOTION_DOT": 2.088e-05, "MEAN_MOTION_DDOT": 0}, "tle": {"line1": "1 63772U 25090A   25347.50400126  .00002088  00000+0  37659-3 0  9990", "line2": "2 63772  98.0701 172.5025 0001149  79.7434 280.3900 14.67543484 33456"}}, "geometry": {"type": "Point", "coordinates": [-123.79187690485462, -80.95088091046618]}}, {"type": "Feature", "properties": {"norad_id": 64694, "name": "GOSAT-GW (IBUKI GW)", "group": "resource", "lat": 55.37813213110062, "lon": 115.54026479223097, "alt_km": 662.794241808795, "timestamp": "2025-12-14T05:42:18.115541+00:00", "meta": {"OBJECT_NAME": "GOSAT-GW (IBUKI GW)", "OBJECT_ID": "2025-141A", "EPOCH": "2025-12-13T16:03:09.154944", "MEAN_MOTION": 14.67560935, "ECCENTRICITY": 0.00014863, "INCLINATION": 98.0422, "RA_OF_ASC_NODE": 283.165, "ARG_OF_PERICENTER": 84.9741, "MEAN_ANOMALY": 275.1633, "EPHEMERIS_TYPE": 0, "CLASSIFICATION_TYPE": "U", "NORAD_CAT_ID": 64694, "ELEMENT_SET_NO": 999, "REV_AT_EPOCH": 2463, "BSTAR": 0.0003010938, "MEAN_MOTION_DOT": 1.661e-05, "MEAN_MOTION_DDOT": 0}, "tle": {"line1": "1 64694U 25141A   25347.66885596  .00001661  00000+0  30109-3 0  9995", "line2": "2 64694  98.0422 283.1650 0001486  84.9741 275.1633 14.67560935 24631"}}, "geometry": {"type": "Point", "coordinates": [115.54026479223097, 55.37813213110062]}}, {"type": "Feature", "properties": {"norad_id": 64876, "name": "IONOSFERA-M 3", "group": "resource", "lat": -56.93894534069486, "lon": 116.65275044585421, "alt_km": 829.1246061414786, "timestamp": "2025-12-14T05:42:18.115552+00:00", "meta": {"OBJECT_NAME": "IONOSFERA-M 3", "OBJECT_ID": "2025-155A", "EPOCH": "2025-12-13T15:04:27.470208", "MEAN_MOTION": 14.21441239, "ECCENTRICITY": 0.00022158, "INCLINATION": 98.5783, "RA_OF_ASC_NODE": 309.469, "ARG_OF_PERICENTER": 58.7266, "MEAN_ANOMALY": 301.4129, "EPHEMERIS_TYPE": 0, "CLASSIFICATION_TYPE": "U", "NORAD_CAT_ID": 64876, "ELEMENT_SET_NO": 999, "REV_AT_EPOCH": 2004, "BSTAR": 7.7519114e-05, "MEAN_MOTION_DOT": 1.27e-06, "MEAN_MOTION_DDOT": 0}, "tle": {"line1": "1 64876U 25155A   25347.62809572  .00000127  00000+0  77519-4 0  9991", "line2": "2 64876  98.5783 309.4690 0002215  58.7266 301.4129 14.21441239 20045"}}, "geometry": {"type": "Point", "coordinates": [116.65275044585421, -56.93894534069486]}}, {"type": "Feature", "properties": {"norad_id": 64877, "name": "IONOSFERA-M 4", "group": "resource", "lat": 57.45628463998058, "lon": -63.701163684171036, "alt_km": 813.785249256156, "timestamp": "2025-12-14T05:42:18.115562+00:00", "meta": {"OBJECT_NAME": "IONOSFERA-M 4", "OBJECT_ID": "2025-155B", "EPOCH": "2025-12-13T15:54:57.114720", "MEAN_MOTION": 14.21442448, "ECCENTRICITY": 0.00015807, "INCLINATION": 98.5782, "RA_OF_ASC_NODE": 309.4227, "ARG_OF_PERICENTER": 62.6235, "MEAN_ANOMALY": 297.5104, "EPHEMERIS_TYPE": 0, "CLASSIFICATION_TYPE": "U", "NORAD_CAT_ID": 64877, "ELEMENT_SET_NO": 999, "REV_AT_EPOCH": 2004, "BSTAR": 8.1870786e-05, "MEAN_MOTION_DOT": 1.36e-06, "MEAN_MOTION_DDOT": 0}, "tle": {"line1": "1 64877U 25155B   25347.66316105  .00000136  00000+0  81871-4 0  9997", "line2": "2 64877  98.5782 309.4227 0001580  62.6235 297.5104 14.21442448 20046"}}, "geometry": {"type": "Point", "coordinates": [-63.701163684171036, 57.45628463998058]}}, {"type": "Feature", "properties": {"norad_id": 64899, "name": "MICROCARB", "group": "resource", "lat": 53.58500694194745, "lon": -105.44676971724746, "alt_km": 637.7484840555308, "timestamp": "2025-12-14T05:42:18.115572+00:00", "meta": {"OBJECT_NAME": "MICROCARB", "OBJECT_ID": "2025-156A", "EPOCH": "2025-12-13T16:05:09.690720", "MEAN_MOTION": 14.7205901, "ECCENTRICITY": 0.00171983, "INCLINATION": 98.0025, "RA_OF_ASC_NODE": 63.0008, "ARG_OF_PERICENTER": 141.8981, "MEAN_ANOMALY": 218.3446, "EPHEMERIS_TYPE": 0, "CLASSIFICATION_TYPE": "U", "NORAD_CAT_ID": 64899, "ELEMENT_SET_NO": 999, "REV_AT_EPOCH": 2067, "BSTAR": 0.00017554077, "MEAN_MOTION_DOT": 1.056e-05, "MEAN_MOTION_DDOT": 0}, "tle": {"line1": "1 64899U 25156A   25347.67025105  .00001056  00000+0  17554-3 0  9998", "line2": "2 64899  98.0025  63.0008 0017198 141.8981 218.3446 14.72059010 20679"}}, "geometry": {"type": "Point", "coordinates": [-105.44676971724746, 53.58500694194745]}}, {"type": "Feature", "properties": {"norad_id": 64900, "name": "CO3D 3", "group": "resource", "lat": 65.19854263574784, "lon": 48.16902083642999, "alt_km": 498.03204477709005, "timestamp": "2025-12-14T05:42:18.115582+00:00", "meta": {"OBJECT_NAME": "CO3D 3", "OBJECT_ID": "2025-156B", "EPOCH": "2025-12-13T16:46:35.865408", "MEAN_MOTION": 15.2020033, "ECCENTRICITY": 0.00013843, "INCLINATION": 97.4344, "RA_OF_ASC_NODE": 64.0523, "ARG_OF_PERICENTER": 93.9049, "MEAN_ANOMALY": 266.2345, "EPHEMERIS_TYPE": 0, "CLASSIFICATION_TYPE": "U", "NORAD_CAT_ID": 64900, "ELEMENT_SET_NO": 999, "REV_AT_EPOCH": 2135, "BSTAR": 0.00015817929, "MEAN_MOTION_DOT": 3.358e-05, "MEAN_MOTION_DDOT": 0}, "tle": {"line1": "1 64900U 25156B   25347.69902622  .00003358  00000+0  15818-3 0  9999", "line2": "2 64900  97.4344  64.0523 0001384  93.9049 266.2345 15.20200330 21357"}}, "geometry": {"type": "Point", "coordinates": [48.16902083642999, 65.19854263574784]}}]}